[{"OBJECT_NAME":"STARLINK-5436","OBJECT_ID":"2022-175AP","EPOCH":"2026-02-02T11:04:03.587232","MEAN_MOTION":15.08836331,"ECCENTRICITY":0.00012429,"INCLINATION":53.2176,"RA_OF_ASC_NODE":187.099,"ARG_OF_PERICENTER":95.6298,"MEAN_ANOMALY":264.4836,"EPHEMERIS_TYPE":0,"CLASSIFICATION_TYPE":"U","NORAD_CAT_ID":54795,"ELEMENT_SET_NO":999,"REV_AT_EPOCH":17481,"BSTAR":8.0370708e-5,"MEAN_MOTION_DOT":9.91e-6,"MEAN_MOTION_DDOT":0},{"OBJECT_NAME":"STARLINK-5415","OBJECT_ID":"2022-175AQ","EPOCH":"2026-02-02T10:53:26.198880","MEAN_MOTION":15.08837587,"ECCENTRICITY":0.00011681,"INCLINATION":53.2176,"RA_OF_ASC_NODE":187.0508,"ARG_OF_PERICENTER":98.943,"MEAN_ANOMALY":261.1695,"EPHEMERIS_TYPE":0,"CLASSIFICATION_TYPE":"U","NORAD_CAT_ID":54796,"ELEMENT_SET_NO":999,"REV_AT_EPOCH":17481,"BSTAR":-0.00015076214,"MEAN_MOTION_DOT":-2.686e-5,"MEAN_MOTION_DDOT":0},{"OBJECT_NAME":"STARLINK-5435","OBJECT_ID":"2022-175AR","EPOCH":"2026-02-02T20:43:42.695904","MEAN_MOTION":15.08837758,"ECCENTRICITY":0.00012973,"INCLINATION":53.2169,"RA_OF_ASC_NODE":200.305,"ARG_OF_PERICENTER":86.3248,"MEAN_ANOMALY":273.7892,"EPHEMERIS_TYPE":0,"CLASSIFICATION_TYPE":"U","NORAD_CAT_ID":54797,"ELEMENT_SET_NO":999,"REV_AT_EPOCH":17466,"BSTAR":3.5854377e-5,"MEAN_MOTION_DOT":2.83e-6,"MEAN_MOTION_DDOT":0},{"OBJECT_NAME":"STARLINK-5420","OBJECT_ID":"2022-175AS","EPOCH":"2026-02-02T15:35:37.659552","MEAN_MOTION":15.08839123,"ECCENTRICITY":0.00012439,"INCLINATION":53.2165,"RA_OF_ASC_NODE":176.1866,"ARG_OF_PERICENTER":95.5139,"MEAN_ANOMALY":264.5995,"EPHEMERIS_TYPE":0,"CLASSIFICATION_TYPE":"U","NORAD_CAT_ID":54798,"ELEMENT_SET_NO":999,"REV_AT_EPOCH":17498,"BSTAR":0.00010983602,"MEAN_MOTION_DOT":1.461e-5,"MEAN_MOTION_DDOT":0},{"OBJECT_NAME":"STARLINK-5421","OBJECT_ID":"2022-175AT","EPOCH":"2026-02-02T12:51:24.242400","MEAN_MOTION":15.08841829,"ECCENTRICITY":0.00011577,"INCLINATION":53.2171,"RA_OF_ASC_NODE":176.8968,"ARG_OF_PERICENTER":59.6463,"MEAN_ANOMALY":300.4644,"EPHEMERIS_TYPE":0,"CLASSIFICATION_TYPE":"U","NORAD_CAT_ID":54799,"ELEMENT_SET_NO":999,"REV_AT_EPOCH":17496,"BSTAR":0.00019547659,"MEAN_MOTION_DOT":2.825e-5,"MEAN_MOTION_DDOT":0},{"OBJECT_NAME":"STARLINK-5428","OBJECT_ID":"2022-175AU","EPOCH":"2026-02-02T20:33:02.592000","MEAN_MOTION":15.08840014,"ECCENTRICITY":0.00013246,"INCLINATION":53.218,"RA_OF_ASC_NODE":190.2679,"ARG_OF_PERICENTER":90.8386,"MEAN_ANOMALY":269.2758,"EPHEMERIS_TYPE":0,"CLASSIFICATION_TYPE":"U","NORAD_CAT_ID":54800,"ELEMENT_SET_NO":999,"REV_AT_EPOCH":17480,"BSTAR":0.00010136306,"MEAN_MOTION_DOT":1.326e-5,"MEAN_MOTION_DDOT":0},{"OBJECT_NAME":"STARLINK-5429","OBJECT_ID":"2022-175AV","EPOCH":"2026-02-03T04:02:06.921024","MEAN_MOTION":15.088416,"ECCENTRICITY":0.00015127,"INCLINATION":53.2169,"RA_OF_ASC_NODE":198.6531,"ARG_OF_PERICENTER":87.3091,"MEAN_ANOMALY":272.8074,"EPHEMERIS_TYPE":0,"CLASSIFICATION_TYPE":"U","NORAD_CAT_ID":54801,"ELEMENT_SET_NO":999,"REV_AT_EPOCH":17471,"BSTAR":8.9229968e-5,"MEAN_MOTION_DOT":1.132e-5,"MEAN_MOTION_DDOT":0},{"OBJECT_NAME":"STARLINK-5426","OBJECT_ID":"2022-175AW","EPOCH":"2026-02-03T06:56:18.586464","MEAN_MOTION":15.08835563,"ECCENTRICITY":0.00012773,"INCLINATION":53.2172,"RA_OF_ASC_NODE":143.0108,"ARG_OF_PERICENTER":82.1965,"MEAN_ANOMALY":277.9172,"EPHEMERIS_TYPE":0,"CLASSIFICATION_TYPE":"U","NORAD_CAT_ID":54802,"ELEMENT_SET_NO":999,"REV_AT_EPOCH":17550,"BSTAR":6.021845e-5,"MEAN_MOTION_DOT":6.71e-6,"MEAN_MOTION_DDOT":0},{"OBJECT_NAME":"STARLINK-5430","OBJECT_ID":"2022-175AX","EPOCH":"2026-02-03T04:18:01.896768","MEAN_MOTION":15.08843753,"ECCENTRICITY":0.00015339,"INCLINATION":53.2177,"RA_OF_ASC_NODE":198.7071,"ARG_OF_PERICENTER":88.792,"MEAN_ANOMALY":271.3248,"EPHEMERIS_TYPE":0,"CLASSIFICATION_TYPE":"U","NORAD_CAT_ID":54803,"ELEMENT_SET_NO":999,"REV_AT_EPOCH":17471,"BSTAR":-2.570469e-6,"MEAN_MOTION_DOT":-3.29e-6,"MEAN_MOTION_DDOT":0},{"OBJECT_NAME":"STARLINK-5422","OBJECT_ID":"2022-175AY","EPOCH":"2026-02-02T10:21:36.206784","MEAN_MOTION":15.08839689,"ECCENTRICITY":0.00013018,"INCLINATION":53.2172,"RA_OF_ASC_NODE":186.9165,"ARG_OF_PERICENTER":90.2843,"MEAN_ANOMALY":269.8299,"EPHEMERIS_TYPE":0,"CLASSIFICATION_TYPE":"U","NORAD_CAT_ID":54804,"ELEMENT_SET_NO":999,"REV_AT_EPOCH":17481,"BSTAR":6.3897542e-5,"MEAN_MOTION_DOT":7.29e-6,"MEAN_MOTION_DDOT":0},{"OBJECT_NAME":"STARLINK-5417","OBJECT_ID":"2022-175AZ","EPOCH":"2026-02-02T20:20:27.027456","MEAN_MOTION":15.08837021,"ECCENTRICITY":0.00012823,"INCLINATION":53.2161,"RA_OF_ASC_NODE":185.2454,"ARG_OF_PERICENTER":86.2845,"MEAN_ANOMALY":273.8294,"EPHEMERIS_TYPE":0,"CLASSIFICATION_TYPE":"U","NORAD_CAT_ID":54805,"ELEMENT_SET_NO":999,"REV_AT_EPOCH":17487,"BSTAR":2.662091e-5,"MEAN_MOTION_DOT":1.36e-6,"MEAN_MOTION_DDOT":0},{"OBJECT_NAME":"STARLINK-5412","OBJECT_ID":"2022-175BA","EPOCH":"2026-02-02T20:04:31.881504","MEAN_MOTION":15.08848186,"ECCENTRICITY":0.00013613,"INCLINATION":53.2163,"RA_OF_ASC_NODE":185.1788,"ARG_OF_PERICENTER":89.8298,"MEAN_ANOMALY":270.285,"EPHEMERIS_TYPE":0,"CLASSIFICATION_TYPE":"U","NORAD_CAT_ID":54806,"ELEMENT_SET_NO":999,"REV_AT_EPOCH":17487,"BSTAR":8.8968e-8,"MEAN_MOTION_DOT":-2.87e-6,"MEAN_MOTION_DDOT":0},{"OBJECT_NAME":"STARLINK-5410","OBJECT_ID":"2022-175BB","EPOCH":"2026-02-02T20:09:50.165280","MEAN_MOTION":15.08834796,"ECCENTRICITY":0.00013442,"INCLINATION":53.2172,"RA_OF_ASC_NODE":185.1961,"ARG_OF_PERICENTER":88.579,"MEAN_ANOMALY":271.5356,"EPHEMERIS_TYPE":0,"CLASSIFICATION_TYPE":"U","NORAD_CAT_ID":54807,"ELEMENT_SET_NO":999,"REV_AT_EPOCH":17487,"BSTAR":0.00027061377,"MEAN_MOTION_DOT":4.021e-5,"MEAN_MOTION_DDOT":0},{"OBJECT_NAME":"STARLINK-5413","OBJECT_ID":"2022-175BC","EPOCH":"2026-02-02T19:32:10.573728","MEAN_MOTION":15.08837203,"ECCENTRICITY":0.00011452,"INCLINATION":53.2167,"RA_OF_ASC_NODE":170.8563,"ARG_OF_PERICENTER":83.047,"MEAN_ANOMALY":277.0653,"EPHEMERIS_TYPE":0,"CLASSIFICATION_TYPE":"U","NORAD_CAT_ID":54808,"ELEMENT_SET_NO":999,"REV_AT_EPOCH":17507,"BSTAR":4.8830551e-5,"MEAN_MOTION_DOT":4.89e-6,"MEAN_MOTION_DDOT":0},{"OBJECT_NAME":"STARLINK-5414","OBJECT_ID":"2022-175BD","EPOCH":"2026-02-02T19:59:13.748064","MEAN_MOTION":15.08851643,"ECCENTRICITY":0.00011057,"INCLINATION":53.2175,"RA_OF_ASC_NODE":185.1507,"ARG_OF_PERICENTER":97.8679,"MEAN_ANOMALY":262.2438,"EPHEMERIS_TYPE":0,"CLASSIFICATION_TYPE":"U","NORAD_CAT_ID":54809,"ELEMENT_SET_NO":999,"REV_AT_EPOCH":17487,"BSTAR":0.00014494104,"MEAN_MOTION_DOT":2.02e-5,"MEAN_MOTION_DDOT":0},{"OBJECT_NAME":"STARLINK-5408","OBJECT_ID":"2022-175BE","EPOCH":"2026-02-02T02:59:49.924896","MEAN_MOTION":15.08835749,"ECCENTRICITY":9.606e-5,"INCLINATION":53.2164,"RA_OF_ASC_NODE":183.5482,"ARG_OF_PERICENTER":76.4646,"MEAN_ANOMALY":283.6453,"EPHEMERIS_TYPE":0,"CLASSIFICATION_TYPE":"U","NORAD_CAT_ID":54810,"ELEMENT_SET_NO":999,"REV_AT_EPOCH":17483,"BSTAR":6.5517581e-5,"MEAN_MOTION_DOT":7.55e-6,"MEAN_MOTION_DDOT":0}]
