STARLINK-5436           
1 54795U 22175AP  26033.46115263  .00000991  00000+0  80371-4 0  9990
2 54795  53.2176 187.0990 0001242  95.6298 264.4836 15.08836331174810
STARLINK-5415           
1 54796U 22175AQ  26033.45377545 -.00002686  00000+0 -15076-3 0  9997
2 54796  53.2176 187.0508 0001168  98.9430 261.1695 15.08837587174818
STARLINK-5435           
1 54797U 22175AR  26033.86368861  .00000283  00000+0  35854-4 0  9990
2 54797  53.2169 200.3050 0001297  86.3248 273.7892 15.08837758174664
STARLINK-5420           
1 54798U 22175AS  26033.64974143  .00001461  00000+0  10984-3 0  9998
2 54798  53.2165 176.1866 0001243  95.5139 264.5995 15.08839123174983
STARLINK-5421           
1 54799U 22175AT  26033.53569725  .00002825  00000+0  19548-3 0  9993
2 54799  53.2171 176.8968 0001157  59.6463 300.4644 15.08841829174961
STARLINK-5428           
1 54800U 22175AU  26033.85628000  .00001326  00000+0  10136-3 0  9992
2 54800  53.2180 190.2679 0001324  90.8386 269.2758 15.08840014174806
STARLINK-5429           
1 54801U 22175AV  26034.16813566  .00001132  00000+0  89230-4 0  9998
2 54801  53.2169 198.6531 0001512  87.3091 272.8074 15.08841600174719
STARLINK-5426           
1 54802U 22175AW  26034.28910401  .00000671  00000+0  60218-4 0  9990
2 54802  53.2172 143.0108 0001277  82.1965 277.9172 15.08835563175503
STARLINK-5430           
1 54803U 22175AX  26034.17918862 -.00000329  00000+0 -25705-5 0  9993
2 54803  53.2177 198.7071 0001533  88.7920 271.3248 15.08843753174717
STARLINK-5422           
1 54804U 22175AY  26033.43166906  .00000729  00000+0  63898-4 0  9992
2 54804  53.2172 186.9165 0001301  90.2843 269.8299 15.08839689174813
STARLINK-5417           
1 54805U 22175AZ  26033.84753504  .00000136  00000+0  26621-4 0  9999
2 54805  53.2161 185.2454 0001282  86.2845 273.8294 15.08837021174874
STARLINK-5412           
1 54806U 22175BA  26033.83648011 -.00000287  00000+0  88968-7 0  9998
2 54806  53.2163 185.1788 0001361  89.8298 270.2850 15.08848186174878
STARLINK-5410           
1 54807U 22175BB  26033.84016395  .00004021  00000+0  27061-3 0  9996
2 54807  53.2172 185.1961 0001344  88.5790 271.5356 15.08834796174873
STARLINK-5413           
1 54808U 22175BC  26033.81401127  .00000489  00000+0  48831-4 0  9998
2 54808  53.2167 170.8563 0001145  83.0470 277.0653 15.08837203175071
STARLINK-5414           
1 54809U 22175BD  26033.83279801  .00002020  00000+0  14494-3 0  9993
2 54809  53.2175 185.1507 0001105  97.8679 262.2438 15.08851643174876
STARLINK-5408           
1 54810U 22175BE  26033.12488339  .00000755  00000+0  65518-4 0  9992
2 54810  53.2164 183.5482 0000960  76.4646 283.6453 15.08835749174834
